{
  "type": "FeatureCollection",
  "features": [
    {
      "type": "Feature",
      "properties": {
        "norad_id": 31177,
        "name": "FENGYUN 1C DEB",
        "group": "fengyun-1c-debris",
        "lat": -26.42433433513596,
        "lon": -102.62752435243584,
        "alt_km": 802.8188382049739,
        "timestamp": "2025-12-04T17:48:40.446599+00:00",
        "meta_object_name": "FENGYUN 1C DEB",
        "meta_object_id": "1999-025BJF",
        "meta_epoch": "2025-12-01T06:04:03.773280",
        "meta_mean_motion": 13.62101426,
        "meta_eccentricity": 0.0311511,
        "meta_inclination": 98.7576,
        "meta_ra_of_asc_node": 249.8401,
        "meta_arg_of_pericenter": 343.5186,
        "meta_mean_anomaly": 168.581,
        "meta_ephemeris_type": 0,
        "meta_classification_type": "U",
        "meta_norad_cat_id": 31177,
        "meta_element_set_no": 999,
        "meta_rev_at_epoch": 66055,
        "meta_bstar": 0.0077346,
        "meta_mean_motion_dot": 8.228e-05,
        "meta_mean_motion_ddot": 0,
        "tle_line1": "1 31177U 99025BJF 25335.25282145  .00008228  00000+0  77346-2 0  9999",
        "tle_line2": "2 31177  98.7576 249.8401 0311511 343.5186 168.5810 13.62101426660550"
      },
      "geometry": {
        "type": "Point",
        "coordinates": [
          -102.62752435243584,
          -26.42433433513596
        ]
      }
    },
    {
      "type": "Feature",
      "properties": {
        "norad_id": 31178,
        "name": "FENGYUN 1C DEB",
        "group": "fengyun-1c-debris",
        "lat": 52.9837857646517,
        "lon": 173.20069105745435,
        "alt_km": 889.8759650720922,
        "timestamp": "2025-12-04T17:48:40.446610+00:00",
        "meta_object_name": "FENGYUN 1C DEB",
        "meta_object_id": "1999-025BJG",
        "meta_epoch": "2025-12-04T05:24:08.661600",
        "meta_mean_motion": 14.22068287,
        "meta_eccentricity": 0.01264233,
        "meta_inclination": 99.5125,
        "meta_ra_of_asc_node": 339.7945,
        "meta_arg_of_pericenter": 339.6357,
        "meta_mean_anomaly": 19.9802,
        "meta_ephemeris_type": 0,
        "meta_classification_type": "U",
        "meta_norad_cat_id": 31178,
        "meta_element_set_no": 999,
        "meta_rev_at_epoch": 95694,
        "meta_bstar": 0.0046120096,
        "meta_mean_motion_dot": 0.00011036,
        "meta_mean_motion_ddot": 0,
        "tle_line1": "1 31178U 99025BJG 25338.22510025  .00011036  00000+0  46120-2 0  9998",
        "tle_line2": "2 31178  99.5125 339.7945 0126423 339.6357  19.9802 14.22068287956949"
      },
      "geometry": {
        "type": "Point",
        "coordinates": [
          173.20069105745435,
          52.9837857646517
        ]
      }
    },
    {
      "type": "Feature",
      "properties": {
        "norad_id": 31179,
        "name": "FENGYUN 1C DEB",
        "group": "fengyun-1c-debris",
        "lat": 51.95914043712481,
        "lon": -169.3994738667131,
        "alt_km": 953.0836153365899,
        "timestamp": "2025-12-04T17:48:40.446620+00:00",
        "meta_object_name": "FENGYUN 1C DEB",
        "meta_object_id": "1999-025BJH",
        "meta_epoch": "2025-12-03T18:47:29.481504",
        "meta_mean_motion": 13.91881058,
        "meta_eccentricity": 0.02153706,
        "meta_inclination": 99.0219,
        "meta_ra_of_asc_node": 357.9513,
        "meta_arg_of_pericenter": 25.2489,
        "meta_mean_anomaly": 335.9014,
        "meta_ephemeris_type": 0,
        "meta_classification_type": "U",
        "meta_norad_cat_id": 31179,
        "meta_element_set_no": 999,
        "meta_rev_at_epoch": 61816,
        "meta_bstar": 0.0015971824,
        "meta_mean_motion_dot": 2.417e-05,
        "meta_mean_motion_ddot": 0,
        "tle_line1": "1 31179U 99025BJH 25337.78298011  .00002417  00000+0  15972-2 0  9991",
        "tle_line2": "2 31179  99.0219 357.9513 0215370  25.2489 335.9014 13.91881058618165"
      },
      "geometry": {
        "type": "Point",
        "coordinates": [
          -169.3994738667131,
          51.95914043712481
        ]
      }
    },
    {
      "type": "Feature",
      "properties": {
        "norad_id": 31180,
        "name": "FENGYUN 1C DEB",
        "group": "fengyun-1c-debris",
        "lat": 40.624226468876806,
        "lon": -61.41607936357084,
        "alt_km": 785.6612819939119,
        "timestamp": "2025-12-04T17:48:40.446630+00:00",
        "meta_object_name": "FENGYUN 1C DEB",
        "meta_object_id": "1999-025BJJ",
        "meta_epoch": "2025-12-04T03:57:54.779904",
        "meta_mean_motion": 13.70330366,
        "meta_eccentricity": 0.04984488,
        "meta_inclination": 99.2171,
        "meta_ra_of_asc_node": 110.0219,
        "meta_arg_of_pericenter": 82.4883,
        "meta_mean_anomaly": 86.8977,
        "meta_ephemeris_type": 0,
        "meta_classification_type": "U",
        "meta_norad_cat_id": 31180,
        "meta_element_set_no": 999,
        "meta_rev_at_epoch": 63949,
        "meta_bstar": 0.00041828021,
        "meta_mean_motion_dot": 8.53e-06,
        "meta_mean_motion_ddot": 0,
        "tle_line1": "1 31180U 99025BJJ 25338.16521736  .00000853  00000+0  41828-3 0  9991",
        "tle_line2": "2 31180  99.2171 110.0219 0498448  82.4883  86.8977 13.70330366639496"
      },
      "geometry": {
        "type": "Point",
        "coordinates": [
          -61.41607936357084,
          40.624226468876806
        ]
      }
    },
    {
      "type": "Feature",
      "properties": {
        "norad_id": 31181,
        "name": "FENGYUN 1C DEB",
        "group": "fengyun-1c-debris",
        "lat": -80.97481295760284,
        "lon": 114.90280853624225,
        "alt_km": 894.8070042906238,
        "timestamp": "2025-12-04T17:48:40.446640+00:00",
        "meta_object_name": "FENGYUN 1C DEB",
        "meta_object_id": "1999-025BJK",
        "meta_epoch": "2025-12-04T01:30:15.706656",
        "meta_mean_motion": 14.11841784,
        "meta_eccentricity": 0.00481584,
        "meta_inclination": 98.7766,
        "meta_ra_of_asc_node": 10.8018,
        "meta_arg_of_pericenter": 98.6212,
        "meta_mean_anomaly": 317.7144,
        "meta_ephemeris_type": 0,
        "meta_classification_type": "U",
        "meta_norad_cat_id": 31181,
        "meta_element_set_no": 999,
        "meta_rev_at_epoch": 95645,
        "meta_bstar": 0.0015975892,
        "meta_mean_motion_dot": 2.906e-05,
        "meta_mean_motion_ddot": 0,
        "tle_line1": "1 31181U 99025BJK 25338.06268179  .00002906  00000+0  15976-2 0  9995",
        "tle_line2": "2 31181  98.7766  10.8018 0048158  98.6212 317.7144 14.11841784956456"
      },
      "geometry": {
        "type": "Point",
        "coordinates": [
          114.90280853624225,
          -80.97481295760284
        ]
      }
    },
    {
      "type": "Feature",
      "properties": {
        "norad_id": 31182,
        "name": "FENGYUN 1C DEB",
        "group": "fengyun-1c-debris",
        "lat": -16.569676591393815,
        "lon": -29.55519055326215,
        "alt_km": 865.0177334898999,
        "timestamp": "2025-12-04T17:48:40.446651+00:00",
        "meta_object_name": "FENGYUN 1C DEB",
        "meta_object_id": "1999-025BJL",
        "meta_epoch": "2025-11-30T19:23:45.055104",
        "meta_mean_motion": 14.14526628,
        "meta_eccentricity": 0.00226562,
        "meta_inclination": 98.6809,
        "meta_ra_of_asc_node": 324.0155,
        "meta_arg_of_pericenter": 170.3323,
        "meta_mean_anomaly": 311.2725,
        "meta_ephemeris_type": 0,
        "meta_classification_type": "U",
        "meta_norad_cat_id": 31182,
        "meta_element_set_no": 999,
        "meta_rev_at_epoch": 95912,
        "meta_bstar": 0.00037537528,
        "meta_mean_motion_dot": 6.79e-06,
        "meta_mean_motion_ddot": 0,
        "tle_line1": "1 31182U 99025BJL 25334.80816036  .00000679  00000+0  37538-3 0  9999",
        "tle_line2": "2 31182  98.6809 324.0155 0022656 170.3323 311.2725 14.14526628959123"
      },
      "geometry": {
        "type": "Point",
        "coordinates": [
          -29.55519055326215,
          -16.569676591393815
        ]
      }
    },
    {
      "type": "Feature",
      "properties": {
        "norad_id": 31183,
        "name": "FENGYUN 1C DEB",
        "group": "fengyun-1c-debris",
        "lat": -54.50840479973248,
        "lon": -25.20312221400254,
        "alt_km": 764.8116079542024,
        "timestamp": "2025-12-04T17:48:40.446660+00:00",
        "meta_object_name": "FENGYUN 1C DEB",
        "meta_object_id": "1999-025BJM",
        "meta_epoch": "2025-12-02T10:28:09.993792",
        "meta_mean_motion": 14.50278724,
        "meta_eccentricity": 0.00470061,
        "meta_inclination": 99.0347,
        "meta_ra_of_asc_node": 319.4319,
        "meta_arg_of_pericenter": 137.8834,
        "meta_mean_anomaly": 14.2406,
        "meta_ephemeris_type": 0,
        "meta_classification_type": "U",
        "meta_norad_cat_id": 31183,
        "meta_element_set_no": 999,
        "meta_rev_at_epoch": 97333,
        "meta_bstar": 0.0014864904,
        "meta_mean_motion_dot": 5.825e-05,
        "meta_mean_motion_ddot": 0,
        "tle_line1": "1 31183U 99025BJM 25336.43622678  .00005825  00000+0  14865-2 0  9993",
        "tle_line2": "2 31183  99.0347 319.4319 0047006 137.8834  14.2406 14.50278724973333"
      },
      "geometry": {
        "type": "Point",
        "coordinates": [
          -25.20312221400254,
          -54.50840479973248
        ]
      }
    }
  ]
}